BEIDOU 3 (C01)          
1 36287U 10001A   22073.52966056 -.00000282  00000+0  00000+0 0  9992
2 36287   1.9169  48.4649 0002606   6.1477  88.5775  1.00275271 44562
BEIDOU 5 (C06)          
1 36828U 10036A   22073.47593766 -.00000163  00000+0  00000+0 0  9997
2 36828  54.1921 177.0993 0027593 182.9443  92.0598  1.00273706 42627
BEIDOU 6 (C04)          
1 37210U 10057A   22073.65490931 -.00000115  00000+0  00000+0 0  9993
2 37210   1.0000  55.5627 0003514 148.3443   4.1193  1.00271497 41684
BEIDOU 7 (C07)          
1 37256U 10068A   22073.38339083 -.00000150  00000+0  00000+0 0  9994
2 37256  50.3797 290.7813 0017897 183.1420 304.6456  1.00279865 41198
BEIDOU 8 (C08)          
1 37384U 11013A   22073.63332078 -.00000141  00000+0  00000+0 0  9992
2 37384  60.1592  55.1942 0019464 196.1269 257.5908  1.00280831 40074
BEIDOU 9 (C09)          
1 37763U 11038A   22073.05230297 -.00000100  00000+0  00000+0 0  9991
2 37763  54.4761 179.5843 0090379 225.9430 237.3784  1.00254925 39043
BEIDOU 10 (C10)         
1 37948U 11073A   22073.56299284 -.00000103  00000+0  00000+0 0  9995
2 37948  50.4940 290.4142 0076915 217.9257 322.4422  1.00274261 37808
BEIDOU 11 (C05)         
1 38091U 12008A   22073.58031398  .00000055  00000+0  00000+0 0  9991
2 38091   1.3541  64.7114 0014022 315.6994  59.2357  1.00276566 36885
BEIDOU 12 (C11)         
1 38250U 12018A   22072.39970726 -.00000099  00000+0  00000+0 0  9993
2 38250  56.7189 356.7325 0022951 257.8569 352.9213  1.86234308 67292
BEIDOU 13 (C12)         
1 38251U 12018B   22073.22608345 -.00000094  00000+0  00000+0 0  9997
2 38251  56.6365 356.0355 0013907 264.6133 224.4731  1.86234152 67316
BEIDOU 15 (C14)         
1 38775U 12050B   22073.36580089  .00000032  00000+0  00000+0 0  9994
2 38775  55.3439 114.8858 0014252 318.3310 101.0800  1.86231247 64698
BEIDOU 16 (C02)         
1 38953U 12059A   22073.51359211 -.00000179  00000+0  00000+0 0  9992
2 38953   1.7528  84.5793 0013130 286.4207  70.0375  1.00274299 34302
BEIDOU 17 (C31)         
1 40549U 15019A   22073.14326117 -.00000138  00000+0  00000+0 0  9998
2 40549  52.0471 313.8615 0035358 189.2073 175.1493  1.00262536 25488
BEIDOU 18 (C57)         
1 40748U 15037A   22073.36563650 -.00000094  00000+0  00000+0 0  9999
2 40748  55.8923 354.9547 0005473 356.9086 135.3114  1.86233197 45142
BEIDOU 19 (C58)         
1 40749U 15037B   22073.35568184 -.00000094  00000+0  00000+0 0  9996
2 40749  55.8955 354.9457 0006851 329.7894 290.6679  1.86232129 45138
BEIDOU 20 (C18)         
1 40938U 15053A   22073.38712906 -.00000076  00000+0  00000+0 0  9990
2 40938  51.6471 276.9610 0043806 192.4209 297.8776  1.00268128 23750
BEIDOU IGSO-6 (C13)     
1 41434U 16021A   22072.82298325 -.00000106  00000+0  00000+0 0  9994
2 41434  57.9597  53.8203 0043362 219.8638 287.7396  1.00260719 21872
BEIDOU-2 G7 (C03)       
1 41586U 16037A   22073.53521495 -.00000356  00000+0  00000+0 0  9992
2 41586   1.7654  68.2529 0009185 358.9694  47.9344  1.00264560 21196
BEIDOU-3 M1 (C19)       
1 43001U 17069A   22073.31577307  .00000032  00000+0  00000+0 0  9991
2 43001  55.4969 114.8758 0011269 286.6176 255.4390  1.86231584 29622
BEIDOU-3 M2 (C20)       
1 43002U 17069B   22073.51160378  .00000034  00000+0  00000+0 0  9992
2 43002  55.4971 114.9039 0009209 305.2829  51.2152  1.86231342 29612
BEIDOU-3 M3 (C27)       
1 43107U 18003A   22073.40191681 -.00000095  00000+0  00000+0 0  9994
2 43107  55.3407 355.9140 0005043  38.7093  50.2743  1.86232388 28383
BEIDOU-3 M4 (C28)       
1 43108U 18003B   22073.31931101 -.00000095  00000+0  00000+0 0  9994
2 43108  55.3344 355.9067 0003213 274.8414 163.1792  1.86230813 28388
BEIDOU-3 M5 (C21)       
1 43207U 18018A   22073.12201512  .00000029  00000+0  00000+0 0  9991
2 43207  55.4564 114.9993 0006213 322.2094  44.5288  1.86231590 27765
BEIDOU-3 M6 (C22)       
1 43208U 18018B   22073.17866520  .00000030  00000+0  00000+0 0  9995
2 43208  55.4557 115.0015 0009387 295.8100  64.1749  1.86231651 27761
BEIDOU-3 M7 (C29)       
1 43245U 18029A   22073.28451471 -.00000094  00000+0  00000+0 0  9996
2 43245  55.2591 353.6924 0001522 342.5565 298.0733  1.86232448 26917
BEIDOU-3 M8 (C30)       
1 43246U 18029B   22073.22184527 -.00000094  00000+0  10000-3 0  9991
2 43246  55.2562 353.7249 0005335 351.5300 293.5388  1.86232660 26901
BEIDOU IGSO-7 (C16)     
1 43539U 18057A   22073.48132868 -.00000164  00000+0  00000+0 0  9999
2 43539  55.0747 176.5468 0045943 223.9501  55.4934  1.00286741 13551
BEIDOU-3 M9 (C23)       
1 43581U 18062A   22073.29702081  .00000034  00000+0  00000+0 0  9996
2 43581  54.3068 235.3413 0001862 320.2575 225.9649  1.86231824 24650
BEIDOU-3 M10 (C24)      
1 43582U 18062B   22073.42079425  .00000034  00000+0  00000+0 0  9991
2 43582  54.3065 235.3266 0006435  24.3979 336.5129  1.86232097 24661
BEIDOU-3 M11 (C25)      
1 43602U 18067A   22073.35707703  .00000033  00000+0  00000+0 0  9997
2 43602  54.3875 233.9352 0007665  15.2445 344.5101  1.86231596 24141
BEIDOU-3 M12 (C26)      
1 43603U 18067B   22073.58779256  .00000031  00000+0  00000+0 0  9993
2 43603  54.3843 233.8943 0004712  11.1231  53.7104  1.86231548 24172
BEIDOU-3 M13 (C32)      
1 43622U 18072A   22073.40644378  .00000033  00000+0  00000+0 0  9999
2 43622  55.4231 114.5477 0007910 281.3763  51.4312  1.86231434 23671
BEIDOU-3 M14 (C33)      
1 43623U 18072B   22073.32051728  .00000032  00000+0  00000+0 0  9991
2 43623  55.4241 114.5425 0005637 301.0002  64.4304  1.86231403 23688
BEIDOU-3 M15 (C34)      
1 43647U 18078A   22073.35847240 -.00000094  00000+0  10000-3 0  9992
2 43647  55.1537 353.8571 0007742 359.4760 286.8428  1.86232999 23189
BEIDOU-3 M16 (C35)      
1 43648U 18078B   22073.18572203 -.00000095  00000+0  00000+0 0  9994
2 43648  55.1506 353.8700 0005595   5.2939  73.1688  1.86232146 23200
BEIDOU-3 G1 (C59)       
1 43683U 18085A   22073.52665201 -.00000282  00000+0  00000+0 0  9998
2 43683   0.8390 183.1941 0002028 335.8430 342.6614  1.00276229 12458
BEIDOU-3 M17 (C36)      
1 43706U 18093A   22072.68367163  .00000038  00000+0  00000+0 0  9993
2 43706  54.3895 235.2403 0007343 280.1797  79.7070  1.86231987 22555
BEIDOU-3 M18 (C37)      
1 43707U 18093B   22073.62687861  .00000033  00000+0  00000+0 0  9994
2 43707  54.3893 235.1987 0006545 315.4805  47.9151  1.86232324 22569
BEIDOU-3 IGSO-1 (C38)   
1 44204U 19023A   22072.46472549 -.00000177  00000+0  00000+0 0  9997
2 44204  56.4214  53.9992 0020567 205.7752 197.2292  1.00287088 10752
BEIDOU-2 G8             
1 44231U 19027A   22073.64242604 -.00000250  00000+0  00000+0 0  9991
2 44231   0.6397  70.9621 0004856 145.0037 332.0677  1.00272554 10475
BEIDOU-3 IGSO-2 (C39)   
1 44337U 19035A   22073.40767501 -.00000170  00000+0  00000+0 0  9990
2 44337  55.1134 172.5710 0022571 190.5921  74.4030  1.00282166 10093
BEIDOU-3 M23 (C45)      
1 44542U 19061A   22072.61914417  .00000039  00000+0  00000+0 0  9992
2 44542  54.6153 235.3655 0007949 352.3251   7.6327  1.86231322 16802
BEIDOU-3 M24 (C46)      
1 44543U 19061B   22073.37480147  .00000035  00000+0  00000+0 0  9991
2 44543  54.6129 235.3103 0005145 352.3390  65.4259  1.86231623 16815
BEIDOU-3 IGSO-3         
1 44709U 19073A   22073.52048233 -.00000128  00000+0  00000+0 0  9995
2 44709  57.4154 297.3659 0020337 172.3799   8.7972  1.00285076  8859
BEIDOU-3 M21            
1 44793U 19078A   22073.09637767 -.00000095  00000+0  10000-3 0  9999
2 44793  55.0024 353.8999 0007497   3.7370  60.9015  1.86232090 15679
BEIDOU-3 M22            
1 44794U 19078B   22073.37826706 -.00000094  00000+0  00000+0 0  9998
2 44794  54.9769 353.8831 0005471 359.0750 166.0442  1.86232659 15671
BEIDOU-3 M19            
1 44864U 19090A   22072.34809944  .00000019  00000+0  00000+0 0  9997
2 44864  55.3566 114.7988 0018138 268.4184 120.5302  1.86231742 15249
BEIDOU-3 M20            
1 44865U 19090B   22073.24216117  .00000031  00000+0  00000+0 0  9996
2 44865  55.3599 114.8002 0016342 281.5719  76.6902  1.86231727 15227
BEIDOU-3 G2             
1 45344U 20017A   22073.51280715 -.00000143  00000+0  00000+0 0  9990
2 45344   2.1370 347.4271 0002523  66.1103  23.1990  1.00272341  7665
BEIDOU-3 G3             
1 45807U 20040A   22073.65249906 -.00000357  00000+0  00000+0 0  9999
2 45807   1.6589 300.9264 0007935 349.4466 227.1533  1.00265663  6489
